STARLINK-32096          
1 59698U 24086S   24204.14926968  .00005722  00000+0  14412-3 0  9994
2 59698  42.9984 211.6070 0001636 285.3500  74.7175 15.40704475 12620
STARLINK-32102          
1 59699U 24086T   24204.03305768  .00000288  00000+0  14159-4 0  9993
2 59699  43.0006 212.4569 0001158 272.4035  87.6689 15.40697365 12441
STARLINK-32092          
1 59700U 24086U   24204.07772066  .00001950  00000+0  53943-4 0  9990
2 59700  43.0011 211.9268 0001333 264.1042  95.9662 15.40698375 12615
STARLINK-32093          
1 59701U 24086V   24204.33927988  .00002308  00000+0  62497-4 0  9997
2 59701  42.9999 210.4509 0001172 275.5472  84.5251 15.40703209 12650
STARLINK-32087          
1 59702U 24086W   24203.44063577  .00002988  00000+0  78763-4 0  9991
2 59702  43.0010 215.7492 0001384 267.6383  92.4315 15.40699591 12594
STARLINK-32086          
1 59703U 24086X   24204.17615063  .00000235  00000+0  12892-4 0  9990
2 59703  42.9984 211.8108 0001291 289.2650  70.8067 15.40705139 12565
STARLINK-32098          
1 59704U 24086Y   24204.33479995  .00051031  00000+0  12177-2 0  9995
2 59704  42.9989 210.4184 0001515 249.3249 110.7445 15.40774602 12598
STARLINK-11107 [DTC]    
1 59708U 24088A   24204.49031671 -.00009972  00000+0 -77648-4 0  9998
2 59708  53.1524  20.1037 0000630   8.7683 351.3345 15.69683008 12682
STARLINK-11088 [DTC]    
1 59709U 24088B   24203.71655627  .00049065  00000+0  40616-3 0  9995
2 59709  53.1504  24.5383 0001674 349.8780  10.2204 15.69786145 12668
STARLINK-11092 [DTC]    
1 59710U 24088C   24203.83896963  .00023477  00000+0  19766-3 0  9991
2 59710  53.1511  23.8742 0001012 206.5268 153.5699 15.69761811 12577
STARLINK-11082 [DTC]    
1 59711U 24088D   24204.25001157  .00113643  00000+0  93127-3 0  9990
2 59711  53.1500  21.7958 0001471 277.8403 273.8807 15.69678599 12637
STARLINK-11108 [DTC]    
1 59712U 24088E   24204.46586277  .00003044  00000+0  29969-4 0  9992
2 59712  53.1530  20.6683 0001377 284.7587  75.3278 15.69717113 12676
STARLINK-11100 [DTC]    
1 59713U 24088F   24204.46100200 -.00003391  00000+0 -23204-4 0  9994
2 59713  53.1524  20.6368 0000389  42.2914 317.8134 15.69661721 12671
STARLINK-11094 [DTC]    
1 59714U 24088G   24204.51971342  .00006569  00000+0  58982-4 0  9993
2 59714  53.1500  20.2926 0001782 279.0378  81.0438 15.69733225 12647
STARLINK-11101 [DTC]    
1 59715U 24088H   24203.80955814 -.00011819  00000+0 -92853-4 0  9992
2 59715  53.1502  23.6855 0002243  10.7151 349.3914 15.69697614 12684
STARLINK-11099 [DTC]    
1 59716U 24088J   24204.51482529 -.00016368  00000+0 -13072-3 0  9999
2 59716  53.1512  20.2564 0000226 324.9372  35.1631 15.69674984 12681
STARLINK-11084 [DTC]    
1 59717U 24088K   24203.86831369  .00048612  00000+0  40368-3 0  9990
2 59717  53.1501  23.3351 0001529 349.1332  10.9652 15.69714054 12575
STARLINK-11103 [DTC]    
1 59718U 24088L   24204.50008389  .00032233  00000+0  26902-3 0  9991
2 59718  53.1520  20.1564 0001544 169.3808 190.7243 15.69786831 12671
STARLINK-11096 [DTC]    
1 59719U 24088M   24203.78514265 -.00046396  00000+0 -38122-3 0  9990
2 59719  53.1527  24.2452 0001863 340.0353  20.0592 15.69645286 12554
STARLINK-11095 [DTC]    
1 59720U 24088N   24203.79483719 -.00016702  00000+0 -13338-3 0  9992
2 59720  53.1518  23.5761 0000703 288.2103  71.8839 15.69692854 12561
STARLINK-31834          
1 59721U 24088P   24204.52875860  .00003491  00000+0  97182-4 0  9996
2 59721  53.1575  34.0803 0000904  69.4582 290.6520 15.39628981 12343
STARLINK-31843          
1 59722U 24088Q   24204.51018538  .00002047  00000+0  61154-4 0  9993
2 59722  53.1599  33.9647 0001049 120.0850 240.0259 15.39616726 12349
STARLINK-31766          
1 59723U 24088R   24204.53341454 -.00001152  00000+0 -18834-4 0  9997
2 59723  53.1603  34.1163 0001310  73.4474 286.6674 15.39610434 12343
STARLINK-31836          
1 59724U 24088S   24204.53805512 -.00000831  00000+0 -10797-4 0  9991
2 59724  53.1601  34.1427 0001156  90.2985 269.8152 15.39614312 12430
STARLINK-31820          
1 59725U 24088T   24203.81006099  .00002865  00000+0  81562-4 0  9990
2 59725  53.1589  37.4158 0000648  71.3321 288.7754 15.39626905 12239
STARLINK-31642          
1 59726U 24088U   24203.80043843 -.00001536  00000+0 -28416-4 0  9993
2 59726  53.1594  37.3605 0001065  88.5009 271.6118 15.39621333 12313
STARLINK-31827          
1 59727U 24088V   24203.85639935  .00001228  00000+0  40683-4 0  9998
2 59727  53.1581  36.9953 0000849  88.5311 271.5792 15.39617149 12425
STARLINK-31472          
1 59730U 24090A   24204.41728911  .00001169  00000+0  35265-4 0  9995
2 59730  43.0065 329.2801 0002295 287.3093  72.7513 15.40695775 12073
STARLINK-31817          
1 59731U 24090B   24204.49780090 -.00001501  00000+0 -28686-4 0  9991
2 59731  43.0027 329.0239 0001258 248.9895 111.0827 15.40701263 12150
STARLINK-31841          
1 59732U 24090C   24204.40833126  .00004219  00000+0  10824-3 0  9993
2 59732  43.0075 329.2176 0002895 295.2887  64.7669 15.40694293 12129
STARLINK-31833          
1 59733U 24090D   24204.40384762  .00002393  00000+0  64534-4 0  9990
2 59733  43.0038 329.1758 0002979 292.5689  67.4852 15.40701076 12073
STARLINK-31849          
1 59734U 24090E   24204.37934137 -.00000995  00000+0 -16544-4 0  9990
2 59734  43.0038 329.8603 0001742 278.6637  81.4022 15.40702116 12122
STARLINK-31661          
1 59735U 24090F   24204.38607155  .00001001  00000+0  31234-4 0  9999
2 59735  43.0012 329.9055 0001452 274.2123  85.8567 15.40691037 12061
STARLINK-31707          
1 59736U 24090G   24203.70641980  .00003815  00000+0  98570-4 0  9990
2 59736  43.0018 333.4060 0001248 315.0023  45.0733 15.40691185 12012
STARLINK-31821          
1 59737U 24090H   24203.69745381  .00003144  00000+0  82523-4 0  9995
2 59737  43.0050 333.3346 0001762 269.9180  90.1475 15.40689003 12017
STARLINK-31819          
1 59738U 24090J   24204.41504610 -.00001702  00000+0 -33471-4 0  9993
2 59738  43.0001 329.2578 0001438 282.8832  77.1864 15.40709776 12087
STARLINK-31726          
1 59739U 24090K   24204.37038567  .00003914  00000+0  10096-3 0  9994
2 59739  43.0052 329.7906 0001811 275.1817  84.8832 15.40686490 12118
STARLINK-31759          
1 59740U 24090L   24204.46196717  .00000012  00000+0  75533-5 0  9993
2 59740  43.0024 328.7440 0001395 244.8332 115.2380 15.40677827 12136
STARLINK-31818          
1 59741U 24090M   24203.42917545  .00005886  00000+0  14808-3 0  9999
2 59741  43.0052 334.7589 0002266 282.7926  77.2678 15.40697668 11970
STARLINK-31816          
1 59742U 24090N   24204.37695203 -.00000878  00000+0 -13745-4 0  9997
2 59742  43.0033 328.9457 0001579 269.0760  90.9916 15.40698049 12106
STARLINK-31809          
1 59743U 24090P   24203.54104784  .00003530  00000+0  91726-4 0  9996
2 59743  43.0036 334.7466 0001875 250.3978 109.6676 15.40703522 11875
STARLINK-31779          
1 59744U 24090Q   24204.43072477  .00001809  00000+0  50550-4 0  9996
2 59744  43.0050 329.3786 0001661 275.1532  84.9135 15.40710501 12108
STARLINK-31805          
1 59745U 24090R   24203.65950189 -.00003296  00000+0 -71661-4 0  9995
2 59745  43.0067 333.9113 0001823 269.5592  90.5055 15.40698360 12006
STARLINK-31681          
1 59746U 24090S   24203.40915113  .00002671  00000+0  71212-4 0  9993
2 59746  43.0060 335.4765 0002942 297.9491  62.1067 15.40691861 11967
STARLINK-31636          
1 59747U 24090T   24203.58572353 -.00005707  00000+0 -12943-3 0  9998
2 59747  43.0029 334.2180 0001607 290.0172  70.0512 15.40703177 11998
STARLINK-31640          
1 59748U 24090U   24203.37555270  .00007215  00000+0  17983-3 0  9998
2 59748  43.0032 335.2165 0001247 264.4280  95.6434 15.40696724 11964
STARLINK-31677          
1 59749U 24090V   24204.39937402  .00000316  00000+0  14845-4 0  9993
2 59749  43.0018 329.1349 0002297 291.9738  68.0875 15.40688321 12120
STARLINK-31783          
1 59750U 24090W   24204.45523427 -.00003152  00000+0 -68221-4 0  9990
2 59750  43.0006 328.6927 0001199 273.8630  86.2089 15.40702419 12141
STARLINK-31808          
1 59751U 24090X   24204.37484859 -.00005120  00000+0 -11535-3 0  9999
2 59751  43.0026 329.8240 0001360 285.5530  74.5176 15.40711356 12118
STARLINK-31822          
1 59752U 24090Y   24204.48659708 -.00001529  00000+0 -29355-4 0  9998
2 59752  43.0035 328.9336 0001614 250.0938 109.9745 15.40697996 12136
STARLINK-11125 [DTC]    
1 59753U 24091A   24204.53446169  .00014153  00000+0  12137-3 0  9995
2 59753  53.1543 260.4602 0001441 127.3006 232.8143 15.69732438 12050
STARLINK-11118 [DTC]    
1 59754U 24091B   24204.53935972  .00005660  00000+0  51514-4 0  9997
2 59754  53.1546 260.4776 0001372  94.4042 265.7132 15.69724648 12050
STARLINK-11132 [DTC]    
1 59755U 24091C   24204.52954851  .00011101  00000+0  96286-4 0  9996
2 59755  53.1549 260.4117 0001695 130.0053 230.1114 15.69731281 12057
STARLINK-11131 [DTC]    
1 59756U 24091D   24204.14264870  .00002590  00000+0  26248-4 0  9993
2 59756  53.1533 262.2733 0001493  87.0586 273.0602 15.69694935 11997
STARLINK-11114 [DTC]    
1 59757U 24091E   24204.39241011 -.00000518  00000+0  58858-6 0  9996
2 59757  53.1590 260.9915 0001758 117.7782 242.3415 15.69693819 11970
STARLINK-11105 [DTC]    
1 59758U 24091F   24204.38751007  .00046367  00000+0  38492-3 0  9997
2 59758  53.1571 260.9598 0002557  37.4127 322.7069 15.69740004 11973
STARLINK-11097 [DTC]    
1 59759U 24091G   24204.38259362  .00009873  00000+0  86173-4 0  9996
2 59759  53.1550 260.9163 0001615 122.3416 237.7758 15.69732837 12020
STARLINK-11098 [DTC]    
1 59760U 24091H   24204.37768485  .00017543  00000+0  14901-3 0  9990
2 59760  53.1525 260.8848 0001388 143.0241 217.0872 15.69765806 11968
STARLINK-11117 [DTC]    
1 59761U 24091J   24204.43645397 -.00008660  00000+0 -66756-4 0  9992
2 59761  53.1542 260.5373 0001240  52.9698 307.1433 15.69687222 12048
STARLINK-11110 [DTC]    
